[{"OBJECT_NAME":"STARLINK-6303","OBJECT_ID":"2023-061V","EPOCH":"2026-03-09T22:00:01.999584","MEAN_MOTION":15.13106112,"ECCENTRICITY":0.000138,"INCLINATION":43.0014,"RA_OF_ASC_NODE":195.3943,"ARG_OF_PERICENTER":290.747,"MEAN_ANOMALY":245.0082,"EPHEMERIS_TYPE":0,"CLASSIFICATION_TYPE":"U","NORAD_CAT_ID":56393,"ELEMENT_SET_NO":999,"REV_AT_EPOCH":572,"BSTAR":0.0031053105,"MEAN_MOTION_DOT":0.00056179,"MEAN_MOTION_DDOT":0},{"OBJECT_NAME":"LEMUR-2-KREMPEL-BRO2","OBJECT_ID":"2025-061C","EPOCH":"2026-03-09T20:43:52.091904","MEAN_MOTION":15.13192951,"ECCENTRICITY":0.00179248,"INCLINATION":97.5616,"RA_OF_ASC_NODE":45.5365,"ARG_OF_PERICENTER":236.8576,"MEAN_ANOMALY":123.0936,"EPHEMERIS_TYPE":0,"CLASSIFICATION_TYPE":"U","NORAD_CAT_ID":63353,"ELEMENT_SET_NO":999,"REV_AT_EPOCH":5258,"BSTAR":0.00044346981,"MEAN_MOTION_DOT":7.837e-5,"MEAN_MOTION_DDOT":0}]
